2023-072H               
1 56750U 23072H   23168.68936237  .00003590  00000+0  19658-3 0  9999
2 56750  97.5376 355.7948 0014660 204.3619 155.6922 15.14783978  3528
AXIOM-2 DEB             
1 56751U 23070B   23168.82938262  .00157959  00000+0  91429-3 0  9999
2 56751  51.4316 322.3242 0058278 226.8294 132.7824 15.75125188  2807
ELECTRON KICK STAGE R/B 
1 56752U 23073A   23169.03466789  .00009613  00000+0  62381-3 0  9995
2 56752  32.7372  62.6847 0011598  70.5284 289.6637 15.06998856  3454
TROPICS-03              
1 56753U 23073B   23168.83918264  .00008544  00000+0  55856-3 0  9994
2 56753  32.7374  63.9680 0010175  80.4074 279.7744 15.06729831  3402
TROPICS-07              
1 56754U 23073C   23168.82248245  .00009501  00000+0  60179-3 0  9997
2 56754  32.7379  63.8282 0014667  72.0443 288.1825 15.07851696  3424
ELECTRON R/B            
1 56755U 23073D   23168.81740281  .00012407  00000+0  77827-3 0  9991
2 56755  35.4650  69.1746 0024015  20.0121 340.1535 15.08365297  3420
COSMOS 2569             
1 56756U 23074A   23169.08232825  .00005430  00000+0  26441-3 0  9997
2 56756  97.4374   3.5187 0001512  87.9161 272.2247 15.18777211  3379
ARABSAT-7B (BADR-8)     
1 56757U 23075A   23167.02714102 -.00000165  00000+0  00000+0 0  9994
2 56757  18.9463 144.8944 7744225 184.6441 157.0774  1.02604984    12
FALCON 9 R/B            
1 56758U 23075B   23168.32137098 -.00000117  00000+0  62639-3 0  9999
2 56758  27.8624 144.4852 8175648 185.8632 146.9700  1.20343338   242
IRNSS-1J (NVS-01)       
1 56759U 23076A   23168.74571715 -.00000326  00000+0  00000+0 0  9997
2 56759   4.9367 273.5684 0004459 358.0870  32.0653  1.00270641   135
GSLV R/B                
1 56760U 23076B   23168.59532509  .00155307  15431-5  50419-2 0  9991
2 56760  19.1797 262.6035 7498172 190.8474 131.7319  2.05227832   405
SHENZHOU-16 (SZ-16)     
1 56761U 23077A   23168.42088704  .00015015  00000+0  18311-3 0  9995
2 56761  41.4728 154.4461 0001391   9.8378 350.2488 15.60158915121877
STARLINK-6197           
1 56767U 23078A   23169.16667824 -.00000945  00000+0 -60922-5 0  9995
2 56767  70.0002   3.0167 0003518 270.2840 205.9876 15.69905698  3119
STARLINK-6198           
1 56768U 23078B   23169.16667824 -.00099285  00000+0 -83226-3 0  9991
2 56768  70.0014   3.0158 0003583 273.8765 205.3698 15.69965094  3112
STARLINK-5978           
1 56769U 23078C   23169.16667824 -.00008003  00000+0 -64896-4 0  9993
2 56769  70.0000   3.0170 0003553 270.9173 206.5447 15.69904918  3113
STARLINK-6342           
1 56770U 23078D   23168.89112933  .00129102  00000+0  10542-2 0  9999
2 56770  70.0036   3.7930 0003175 258.5499 101.5340 15.70035093  2811
STARLINK-6339           
1 56771U 23078E   23169.16667824 -.00040384  00000+0 -33557-3 0  9993
2 56771  70.0004   3.0125 0003454 274.7040 205.1393 15.69932529  3119
STARLINK-6275           
1 56772U 23078F   23169.16667824 -.00001610  00000+0 -11620-4 0  9991
2 56772  70.0001   3.0164 0003804 272.6791 205.3800 15.69916365  3114
STARLINK-6296           
1 56773U 23078G   23169.16667824 -.00063544  00000+0 -53025-3 0  9990
2 56773  70.0005   3.0114 0003515 273.2566 207.1828 15.69943416  3117
STARLINK-6190           
1 56774U 23078H   23169.16667824 -.00001750  00000+0 -12800-4 0  9999
2 56774  70.0000   3.0150 0003665 273.6726 204.9794 15.69904559  3113
STARLINK-6292           
1 56775U 23078J   23169.16667824 -.00050936  00000+0 -42408-3 0  9996
2 56775  70.0004   3.0082 0003536 273.1585 210.2562 15.69942003  3116
STARLINK-6274           
1 56776U 23078K   23169.16667824 -.00050136  00000+0 -41747-3 0  9994
2 56776  70.0000   3.0124 0003538 267.9990 213.0496 15.69935021  3112
STARLINK-5582           
1 56777U 23078L   23168.88955265  .00680698  00000+0  50343-2 0  9993
2 56777  70.0019   3.7840 0003152 293.3969  66.6896 15.70785936  2818
STARLINK-6304           
1 56778U 23078M   23169.16667824 -.00059980  00000+0 -50014-3 0  9999
2 56778  70.0010   3.0127 0003428 274.7636 206.8633 15.69946749  3111
STARLINK-6231           
1 56779U 23078N   23169.16667824 -.00078930  00000+0 -66003-3 0  9991
2 56779  70.0005   3.0018 0003551 267.8743 220.3065 15.69952231  3117
STARLINK-5963           
1 56780U 23078P   23169.16667824 -.00056354  00000+0 -46970-3 0  9990
2 56780  70.0003   3.0057 0003649 271.3564 214.4392 15.69940307  3117
STARLINK-5989           
1 56781U 23078Q   23169.16667824 -.00131124  00000+0 -11037-2 0  9995
2 56781  70.0004   2.9978 0003657 270.5348 220.0272 15.69968245  3110
STARLINK-6352           
1 56782U 23078R   23168.82646987 -.00047826  00000+0 -39634-3 0  9994
2 56782  70.0034   3.9671 0003413 277.0918  82.9890 15.70039409  2809
STARLINK-6357           
1 56783U 23078S   23168.88975770  .00707360  00000+0  52099-2 0  9999
2 56783  70.0029   3.7854 0003529 290.1487  69.9330 15.70807799  2810
STARLINK-6354           
1 56784U 23078T   23169.16667824 -.00033129  00000+0 -27467-3 0  9999
2 56784  70.0008   3.0105 0003397 275.7378 207.0760 15.69937958  3116
STARLINK-5931           
1 56785U 23078U   23169.16667824 -.00106192  00000+0 -89093-3 0  9994
2 56785  70.0014   3.0013 0003681 269.5191 219.8518 15.69966617  3118
STARLINK-6341           
1 56786U 23078V   23169.16667824 -.00067549  00000+0 -56389-3 0  9999
2 56786  70.0008   3.0088 0003549 274.1497 210.4547 15.69949958  3116
STARLINK-6326           
1 56787U 23078W   23169.16667824 -.00065596  00000+0 -54751-3 0  9991
2 56787  70.0008   3.0024 0003563 268.2091 219.3775 15.69945593  3119
STARLINK-6336           
1 56788U 23078X   23169.16667824 -.00075481  00000+0 -63084-3 0  9995
2 56788  70.0019   3.0058 0003665 271.6973 214.6939 15.69951951  3114
STARLINK-6325           
1 56789U 23078Y   23169.16667824 -.00103336  00000+0 -86678-3 0  9991
2 56789  70.0014   2.9963 0003722 271.3727 222.1663 15.69962208  3116
STARLINK-6345           
1 56790U 23078Z   23169.16667824 -.00042722  00000+0 -35506-3 0  9998
2 56790  70.0014   3.0045 0003602 270.4353 216.5553 15.69941427  3118
STARLINK-5977           
1 56791U 23078AA  23169.16667824 -.00104906  00000+0 -88029-3 0  9990
2 56791  70.0009   2.9966 0003677 269.1497 222.6027 15.69958257  3112
STARLINK-6046           
1 56792U 23078AB  23169.16667824 -.00057446  00000+0 -47867-3 0  9992
2 56792  70.0004   3.0005 0003622 271.6656 217.1032 15.69951931  3116
STARLINK-6052           
1 56793U 23078AC  23168.83334491  .00055160  00000+0  45828-3 0  9991
2 56793  70.0017   3.9289 0003390 272.6446 140.4836 15.69882470  3069
STARLINK-6060           
1 56794U 23078AD  23169.16667824 -.00030454  00000+0 -25250-3 0  9996
2 56794  70.0014   3.0002 0003653 274.6121 216.5777 15.69914255  3117
STARLINK-6061           
1 56795U 23078AE  23169.16667824 -.00038900  00000+0 -32305-3 0  9990
2 56795  70.0008   2.9870 0003564 268.6046 231.4846 15.69936977  3110
STARLINK-6049           
1 56796U 23078AF  23169.16667824 -.00098408  00000+0 -82494-3 0  9994
2 56796  70.0010   2.9996 0003649 269.8945 220.0730 15.69960613  3118
STARLINK-6058           
1 56797U 23078AG  23169.16667824 -.00119815  00000+0 -10063-2 0  9993
2 56797  70.0005   2.9916 0003529 267.3726 227.9272 15.69986160  3114
STARLINK-6068           
1 56798U 23078AH  23169.16667824 -.00099238  00000+0 -83199-3 0  9991
2 56798  70.0006   2.9967 0003632 268.4048 223.9388 15.69961030  3119
STARLINK-5953           
1 56799U 23078AJ  23169.16667824 -.00072524  00000+0 -60590-3 0  9991
2 56799  70.0005   2.9829 0003597 273.3382 229.7322 15.69950347  3113
STARLINK-6036           
1 56800U 23078AK  23169.16667824 -.00101191  00000+0 -84847-3 0  9998
2 56800  70.0011   2.9966 0003741 271.4005 221.5426 15.69963847  3111
STARLINK-6087           
1 56801U 23078AL  23169.16667824 -.00101183  00000+0 -84842-3 0  9995
2 56801  70.0006   2.9883 0003548 268.3666 230.5284 15.69964571  3114
STARLINK-6070           
1 56802U 23078AM  23169.16667824 -.00092306  00000+0 -77307-3 0  9990
2 56802  70.0007   2.9937 0003570 268.1876 226.5380 15.69962785  3119
STARLINK-6029           
1 56803U 23078AN  23169.16667824 -.00111070  00000+0 -93277-3 0  9995
2 56803  70.0005   2.9894 0003532 268.6261 229.0778 15.69959960  3111
STARLINK-6069           
1 56804U 23078AP  23169.16667824 -.00090701  00000+0 -75953-3 0  9994
2 56804  70.0008   2.9950 0003539 267.2981 226.8317 15.69960539  3117
STARLINK-6064           
1 56805U 23078AQ  23169.01498989 -.00045948  00000+0 -38135-3 0  9997
2 56805  70.0014   3.4161 0003557 270.2477  89.8311 15.69992490  3098
STARLINK-6072           
1 56806U 23078AR  23169.16667824 -.00041895  00000+0 -34768-3 0  9995
2 56806  70.0006   2.9925 0003515 270.8499 225.0120 15.69972146  3117
STARLINK-6073           
1 56807U 23078AS  23169.16667824 -.00056108  00000+0 -46755-3 0  9998
2 56807  70.0005   2.9835 0003467 274.6572 227.8152 15.69945109  3111
STARLINK-6042           
1 56808U 23078AT  23169.16667824 -.00065347  00000+0 -54533-3 0  9997
2 56808  70.0004   2.9847 0003621 272.8423 229.0358 15.69948875  3116
STARLINK-6040           
1 56809U 23078AU  23169.16667824 -.00062947  00000+0 -52511-3 0  9995
2 56809  70.0002   2.9836 0003606 272.3791 228.9021 15.69947670  3116
STARLINK-6031           
1 56810U 23078AV  23169.16667824 -.00094371  00000+0 -79072-3 0  9994
2 56810  70.0012   2.9900 0003642 271.8341 226.4685 15.69958611  3112
STARLINK-6063           
1 56811U 23078AW  23169.16667824 -.00131109  00000+0 -11035-2 0  9990
2 56811  70.0005   2.9807 0003576 271.0072 233.2618 15.69970436  3111
STARLINK-6065           
1 56812U 23078AX  23169.16667824 -.00088422  00000+0 -74027-3 0  9991
2 56812  70.0006   2.9865 0003469 268.2655 232.4186 15.69958447  3112
STARLINK-6056           
1 56813U 23078AY  23169.16667824 -.00067245  00000+0 -56117-3 0  9992
2 56813  70.0010   2.9805 0003572 272.9706 231.8832 15.69956783  3118
